CARTOSAT-2 (IRS-P7)     
1 29710U 07001B   17346.42734621  .00000150  00000-0  27334-4 0  9996
2 29710  97.9033  44.5658 0000927  35.5099 324.6172 14.78703351589537
